
# Worst residual: 247.83 km
# MJD 59451.000000 (2021 Aug 25  0:00)
A10yC0m = A10z0ha = A10yxgW = A10yxgY = A10z0h9 = A10y5MF
1 89956U 00000ABR 21237.49919926  .00000000  00000-0  00000-0 0 12951
2 89956 006.4311 095.5747 6705517 037.2476 142.7263 01.06654489    09

# Worst residual: 212.25 km
# MJD 59452.000000 (2021 Aug 26  0:00)
A10yC0m = A10z0ha = A10yxgW = A10yxgY = A10z0h9 = A10y5MF
1 89956U 00000ABR 21238.49919926  .00000000  00000-0  00000-0 0 12952
2 89956 006.4828 095.7775 6669929 037.8018 165.6182 01.06515100    09

# Worst residual: 94.28 km
# MJD 59453.000000 (2021 Aug 27  0:00)
A10yC0m = A10z0ha = A10yxgW = A10yxgY = A10z0h9 = A10y5MF
1 89956U 00000ABR 21239.49919926  .00000000  00000-0  00000-0 0 12953
2 89956 006.5180 095.9843 6625647 038.3540 188.2817 01.06359829    04

# Worst residual: 91.19 km
# MJD 59454.000000 (2021 Aug 28  0:00)
A10yC0m = A10z0ha = A10yxgW = A10yxgY = A10z0h9 = A10y5MF
1 89956U 00000ABR 21240.49919926  .00000000  00000-0  00000-0 0 12955
2 89956 006.5484 096.1199 6586511 038.9163 210.8376 01.06227338    02

# Worst residual: 93.41 km
# MJD 59455.000000 (2021 Aug 29  0:00)
A10yC0m = A10z0ha = A10yxgW = A10yxgY = A10z0h9 = A10y5MF
1 89956U 00000ABR 21241.49919926  .00000000  00000-0  00000-0 0 12956
2 89956 006.5829 096.2764 6557976 039.4698 233.1232 01.06184509    07

# Worst residual: 145.13 km
# MJD 59456.000000 (2021 Aug 30  0:00)
A10yC0m = A10z0ha = A10yxgW = A10yxgY = A10z0h9 = A10y5MF
1 89956U 00000ABR 21242.49919926  .00000000  00000-0  00000-0 0 12957
2 89956 006.6074 096.3526 6529008 040.1377 255.1072 01.06149061    05

# Worst residual: 139.06 km
# MJD 59457.000000 (2021 Aug 31  0:00)
A10yC0m = A10z0ha = A10yxgW = A10yxgY = A10z0h9 = A10y5MF
1 89956U 00000ABR 21243.49919926  .00000000  00000-0  00000-0 0 12958
2 89956 006.6341 096.5066 6499463 040.7507 276.8075 01.06150376    09

# Worst residual: 163.44 km
# MJD 59458.000000 (2021 Sep  1  0:00)
A10yC0m = A10z0ha = A10yxgW = A10yxgY = A10z0h9 = A10y5MF
1 89956U 00000ABR 21244.49919926  .00000000  00000-0  00000-0 0 12959
2 89956 006.6627 096.5394 6467471 041.5016 298.2325 01.06167173    07

# Worst residual: 163.49 km
# MJD 59459.000000 (2021 Sep  2  0:00)
A10yC0m = A10z0ha = A10yxgW = A10yxgY = A10z0h9 = A10y5MF
1 89956U 00000ABR 21245.49919926  .00000000  00000-0  00000-0 0 12950
2 89956 006.6689 096.6319 6434846 042.1912 319.4034 01.06186202    02

# Worst residual: 157.36 km
# MJD 59460.000000 (2021 Sep  3  0:00)
A10yC0m = A10z0ha = A10yxgW = A10yxgY = A10z0h9 = A10y5MF
1 89956U 00000ABR 21246.49919926  .00000000  00000-0  00000-0 0 12951
2 89956 006.6793 096.5564 6399244 043.0450 340.3158 01.06225663    03

# Worst residual: 142.15 km
# MJD 59461.000000 (2021 Sep  4  0:00)
A10yC0m = A10z0ha = A10yxgW = A10yxgY = A10z0h9 = A10y5MF
1 89956U 00000ABR 21247.49919926  .00000000  00000-0  00000-0 0 12952
2 89956 006.6906 096.6623 6364031 043.7114 001.0022 01.06229982    05

# Worst residual: 119.23 km
# MJD 59462.000000 (2021 Sep  5  0:00)
A10yC0m = A10z0ha = A10yxgW = A10yxgY = A10z0h9 = A10y5MF
1 89956U 00000ABR 21248.49919926  .00000000  00000-0  00000-0 0 12953
2 89956 006.6975 096.6487 6327961 044.4869 021.4214 01.06212944    04

# Worst residual: 159.81 km
# MJD 59463.000000 (2021 Sep  6  0:00)
A10yC0m = A10z0ha = A10yxgW = A10yxgY = A10z0h9 = A10y5MF
1 89956U 00000ABR 21249.49919926  .00000000  00000-0  00000-0 0 12954
2 89956 006.7024 096.6182 6295130 045.2773 041.5519 01.06147875    08

# Worst residual: 203.41 km
# MJD 59464.000000 (2021 Sep  7  0:00)
A10yC0m = A10z0ha = A10yxgW = A10yxgY = A10z0h9 = A10y5MF
1 89956U 00000ABR 21250.49919926  .00000000  00000-0  00000-0 0 12956
2 89956 006.7129 096.6075 6259458 046.0746 061.3762 01.06040230    04

# Worst residual: 233.92 km
# MJD 59465.000000 (2021 Sep  8  0:00)
A10yC0m = A10z0ha = A10yxgW = A10yxgY = A10z0h9 = A10y5MF
1 89956U 00000ABR 21251.49919926  .00000000  00000-0  00000-0 0 12957
2 89956 006.7033 096.5019 6227321 046.9780 080.8683 01.05912606    08

# Worst residual: 241.13 km
# MJD 59466.000000 (2021 Sep  9  0:00)
A10yC0m = A10z0ha = A10yxgW = A10yxgY = A10z0h9 = A10y5MF
1 89956U 00000ABR 21252.49919926  .00000000  00000-0  00000-0 0 12958
2 89956 006.6968 096.4066 6192930 047.8936 100.0286 01.05755295    08

# Worst residual: 228.42 km
# MJD 59467.000000 (2021 Sep 10  0:00)
A10yC0m = A10z0ha = A10yxgW = A10yxgY = A10z0h9 = A10y5MF
1 89956U 00000ABR 21253.49919926  .00000000  00000-0  00000-0 0 12959
2 89956 006.6942 096.3069 6156241 048.8500 118.8757 01.05602039    02

# Worst residual: 256.29 km
# MJD 59468.000000 (2021 Sep 11  0:00)
A10yC0m = A10z0ha = A10yxgW = A10yxgY = A10z0h9 = A10y5MF
1 89956U 00000ABR 21254.49919926  .00000000  00000-0  00000-0 0 12950
2 89956 006.6857 096.1733 6116574 049.8560 137.4058 01.05440532    04

# Worst residual: 238.34 km
# MJD 59469.000000 (2021 Sep 12  0:00)
A10yC0m = A10z0ha = A10yxgW = A10yxgY = A10z0h9 = A10y5MF
1 89956U 00000ABR 21255.49919926  .00000000  00000-0  00000-0 0 12951
2 89956 006.6749 096.0120 6075553 050.8781 155.6979 01.05287811    04

# Worst residual: 144.08 km
# MJD 59470.000000 (2021 Sep 13  0:00)
A10yC0m = A10z0ha = A10yxgW = A10yxgY = A10z0h9 = A10y5MF
1 89956U 00000ABR 21256.49919926  .00000000  00000-0  00000-0 0 12952
2 89956 006.6494 095.7584 6032548 051.9984 173.7210 01.05154075    09

# Worst residual: 129.69 km
# MJD 59471.000000 (2021 Sep 14  0:00)
A10yC0m = A10z0ha = A10yxgW = A10yxgY = A10z0h9 = A10y5MF
1 89956U 00000ABR 21257.49919926  .00000000  00000-0  00000-0 0 12953
2 89956 006.6499 095.6264 5984484 052.9822 191.5305 01.04993204    01

# Worst residual: 102.16 km
# MJD 59472.000000 (2021 Sep 15  0:00)
A10yC0m = A10z0ha = A10yxgW = A10yxgY = A10z0h9 = A10y5MF
1 89956U 00000ABR 21258.49919926  .00000000  00000-0  00000-0 0 12954
2 89956 006.6371 095.4230 5942298 053.9997 209.1859 01.04882659    03
